SYRACUSE 3A             
1 28885U 05041B   20144.65566451  .00000141  00000-0  00000+0 0  9995
2 28885   0.0298  92.4407 0003995 337.9584  94.3411  1.00272683 53518
INMARSAT 4-F2           
1 28899U 05044A   20144.87434938  .00000021  00000-0  00000-0 0  9999
2 28899   3.0202  29.7694 0002660  43.0164 187.8212  1.00272901 53306
TELKOM 2                
1 28902U 05046A   20144.60308352 -.00000126  00000-0  00000-0 0  9994
2 28902   0.0310 134.7956 0001236 327.3808 153.5955  1.00271264 53223
SPACEWAY 2              
1 28903U 05046B   20145.22012247  .00000115  00000-0  00000-0 0  9996
2 28903   0.1488  92.0626 0000407   2.9633  87.6014  1.00272272 29138
METEOSAT-9 (MSG-2)      
1 28912U 05049B   20145.00581392  .00000028  00000-0  00000-0 0  9990
2 28912   4.3748  70.2247 0001440   7.0295 170.1756  1.00273057 52823
EUTELSAT 174A           
1 28924U 05052A   20144.89633285  .00000021  00000-0  00000-0 0  9995
2 28924   0.0697  15.8077 0006258  50.6729 312.1554  1.00272588 30116
ECHOSTAR 10             
1 28935U 06003A   20144.69603913 -.00000043  00000-0  00000-0 0  9992
2 28935   0.0195 269.7176 0001089 107.9333   4.4839  1.00271640 52260
SPAINSAT                
1 28945U 06007A   20144.41256426 -.00000204  00000-0  00000-0 0  9999
2 28945   0.0262 196.2151 0002199 244.5732 279.2521  1.00271327 52012
EUTELSAT HOT BIRD 13E   
1 28946U 06007B   20144.57706493  .00000099  00000-0  00000-0 0  9992
2 28946   0.0403 180.4521 0004354 281.8186   0.1205  1.00270417 52095
JCSAT-5A                
1 29045U 06010A   20144.45535541 -.00000316  00000-0  00000+0 0  9990
2 29045   0.0135 276.7658 0001936 172.7302  88.0170  1.00272775 51723
ASTRA 1KR               
1 29055U 06012A   20145.22132966  .00000131  00000-0  00000-0 0  9998
2 29055   0.0194 269.3570 0000471 162.4648 269.3171  1.00271272 23514
GOES 13                 
1 29155U 06018A   20145.08920878  .00000050  00000-0  00000-0 0  9996
2 29155   0.1988 265.5853 0004830 289.6569 140.2482  1.00274030 21151
EUTELSAT 113 WEST A     
1 29162U 06020A   20144.36120108 -.00000025  00000-0  00000-0 0  9998
2 29162   0.0171 273.4899 0003064 149.7150 195.2531  1.00271634 51267
GALAXY 16 (G-16)        
1 29236U 06023A   20145.05719589 -.00000116  00000-0  00000+0 0  9997
2 29236   0.0669 108.5664 0002428 304.7586 110.3983  1.00272191 51053
EUTELSAT HOT BIRD 13B   
1 29270U 06032A   20144.94146778  .00000098  00000-0  00000-0 0  9995
2 29270   0.0646 357.3868 0004787  38.5820 197.9575  1.00271001 25103
JCSAT-3A                
1 29272U 06033A   20144.88422049 -.00000334  00000-0  00000-0 0  9993
2 29272   0.0088  56.8206 0001798 351.0720 280.3817  1.00270244 25523
SYRACUSE 3B             
1 29273U 06033B   20144.86056611 -.00000032  00000-0  00000-0 0  9995
2 29273   0.0179 344.3945 0005494  83.8467 118.2875  1.00271512 50491
KOREASAT 5 (MUGUNGWHA 5)
1 29349U 06034A   20144.95591500 -.00000347  00000-0  00000-0 0  9990
2 29349   0.0456 115.4291 0000925 345.8900 237.8996  1.00273267 19105
DIRECTV 9S              
1 29494U 06043A   20145.00799233 -.00000102  00000-0  00000+0 0  9999
2 29494   0.0077 227.7454 0002973 201.5655  74.4383  1.00272040 49895
OPTUS D1                
1 29495U 06043B   20144.39170785 -.00000099  00000-0  00000-0 0  9992
2 29495   0.0152 315.3797 0003241 103.4066 123.6793  1.00269833 49909
XM-4 (BLUES)            
1 29520U 06049A   20145.05396816 -.00000011  00000-0  00000+0 0  9999
2 29520   0.0081  59.3743 0000237 282.9531 163.9260  1.00271254 49789
BADR-4                  
1 29526U 06051A   20145.01035020  .00000156  00000-0  00000-0 0  9991
2 29526   0.0464 349.6205 0003301  41.7790 240.3928  1.00272485 29079
WILDBLUE-1              
1 29643U 06054A   20144.42702063 -.00000037  00000-0  00000-0 0  9995
2 29643   0.0142 357.2617 0001395  73.2372 213.5551  1.00271327 49329
AMC-18                  
1 29644U 06054B   20144.69028156  .00000116  00000-0  00000-0 0  9996
2 29644   0.0162  13.4716 0002774  67.2508 270.5302  1.00271151 49332
MEASAT-3                
1 29648U 06056A   20144.87984524 -.00000230  00000-0  00000-0 0  9990
2 29648   0.0618 117.9769 0002625 335.0376 197.1963  1.00270829 28250
INSAT-4B                
1 30793U 07007A   20144.73563205 -.00000177  00000-0  00000+0 0  9993
2 30793   0.3841  97.8830 0002459 236.3425 257.8744  1.00273769 48341
SKYNET 5A               
1 30794U 07007B   20144.80883519 -.00000260  00000-0  00000-0 0  9999
2 30794   0.5103  89.5476 0004229 345.4168 193.3103  1.00270813 48487
ANIK F3                 
1 31102U 07009A   20145.00743749  .00000011  00000-0  00000-0 0  9991
2 31102   0.0132 309.3114 0002137  95.4592  81.2730  1.00271216 48129
ASTRA 1L                
1 31306U 07016A   20144.92410446  .00000131  00000-0  00000-0 0  9993
2 31306   0.0349 319.0602 0002356  46.6242 228.1477  1.00271609 22823
GALAXY 17 (G-17)        
1 31307U 07016B   20144.05383545 -.00000162  00000-0  00000-0 0  9992
2 31307   0.0493  86.1167 0002964 345.2635  98.1502  1.00272209 47852
ZHONGXING-6B            
1 31800U 07031A   20145.00913108 -.00000350  00000-0  00000-0 0  9996
2 31800   0.0145 306.5106 0003356 114.8683 299.4376  1.00276246 47215
DIRECTV 10              
1 31862U 07032A   20145.23956029 -.00000092  00000-0  00000-0 0  9992
2 31862   0.0184 127.8834 0000264 112.0527 345.8716  1.00271798 23406
SPACEWAY 3              
1 32018U 07036A   20144.41960042 -.00000139  00000-0  00000-0 0  9991
2 32018   0.0083  66.9834 0000118   1.6081 228.9971  1.00269816 24332
BSAT-3A                 
1 32019U 07036B   20144.82337326 -.00000339  00000-0  00000+0 0  9991
2 32019   0.0467 231.0730 0000911 297.1678 119.9185  1.00273138 46842
INSAT-4CR               
1 32050U 07037A   20144.98243913  .00000136  00000-0  00000-0 0  9997
2 32050   1.2797  93.4824 0004410 204.5486 345.5655  1.00272091 29170
OPTUS D2                
1 32252U 07044A   20144.61507810 -.00000172  00000-0  00000+0 0  9998
2 32252   0.0167 340.2130 0003444  81.2469 193.6650  1.00269409 46223
INTELSAT 11 (IS-11)     
1 32253U 07044B   20144.99656692 -.00000257  00000-0  00000-0 0  9998
2 32253   0.0174 323.1818 0001418 117.9900 116.6737  1.00271984 46391
WGS F1 (USA 195)        
1 32258U 07046A   20144.94146778  .00000053  00000-0  00000-0 0  9992
2 32258   0.0182 296.7796 0000190  64.1866 225.9900  1.00269738 46104
STAR ONE C1             
1 32293U 07056A   20145.27595118 -.00000265  00000-0  00000+0 0  9990
2 32293   0.0154 358.7470 0002534  73.1889 204.7553  1.00271186 45893
SKYNET 5B               
1 32294U 07056B   20145.01017572  .00000153  00000-0  00000+0 0  9991
2 32294   0.0685   7.0999 0003916  66.0230 197.7069  1.00272384 45972
ASTRA 4A (SIRIUS 4)     
1 32299U 07057A   20144.57540744  .00000044  00000-0  00000-0 0  9999
2 32299   0.0155 319.5479 0002766  98.9276  35.1267  1.00271463 29478
HORIZONS 2              
1 32388U 07063B   20145.03126799 -.00000171  00000-0  00000-0 0  9999
2 32388   0.0196  43.5907 0002614  12.4053 282.2024  1.00271498 45649
THURAYA-3               
1 32404U 08001A   20144.73765066 -.00000292  00000-0  00000-0 0  9997
2 32404   3.7677   9.5432 0004814  35.3093 201.0113  1.00271909 45318
EXPRESS-AM33            
1 32478U 08003A   20141.43524135 -.00000272  00000-0  00000+0 0  9991
2 32478   0.0012 166.6020 0001134 313.5767  11.5466  1.00271634 45366
THOR 5                  
1 32487U 08006A   20145.17089078  .00000002  00000-0  00000-0 0  9992
2 32487   0.0135 277.8290 0002275 143.2092 241.9714  1.00271246 45096
AMC-14                  
1 32708U 08011A   20143.93187962  .00000087  00000-0  00000+0 0  9999
2 32708  20.9234  47.7969 0045081   3.8798 182.7656  1.00273211 45873
DIRECTV 11              
1 32729U 08013A   20145.42236375 -.00000114  00000-0  00000+0 0  9995
2 32729   0.0098  65.3338 0000100 140.2319  89.7875  1.00269082 44720
ICO G1                  
1 32763U 08016A   20145.18464227 -.00000161  00000-0  00000-0 0  9991
2 32763   3.6361  12.5154 0002507  36.0481 167.2982  1.00272298 44370
VINASAT-1               
1 32767U 08018A   20144.63729837 -.00000316  00000-0  00000-0 0  9999
2 32767   0.0096 330.9378 0001611 114.5559 157.5965  1.00273206 44382
STAR ONE C2             
1 32768U 08018B   20144.99124553 -.00000253  00000-0  00000+0 0  9992
2 32768   0.0197 131.6470 0001341 335.8791  61.3975  1.00271176 44332
TIANLIAN 1-01           
1 32779U 08019A   20144.94928505 -.00000127  00000-0  00000-0 0  9990
2 32779   4.0723  72.6387 0032547 262.4145 328.6029  1.00269625 44205
AMOS-3                  
1 32794U 08022A   20144.35800998 -.00000023  00000-0  00000+0 0  9995
2 32794   0.0683 113.3555 0002229 293.2095 319.6333  1.00272587 44235
GALAXY 18 (G-18)        
1 32951U 08024A   20145.00743749  .00000037  00000-0  00000-0 0  9990
2 32951   0.0372  96.7799 0003085 334.7552  50.2155  1.00273273 23688
CHINASAT 9 (ZX 9)       
1 33051U 08028A   20144.66461333 -.00000235  00000-0  00000+0 0  9993
2 33051   0.0161 338.0909 0003688  89.6065 145.4994  1.00269807 43795
SKYNET 5C               
1 33055U 08030A   20145.28871736 -.00000128  00000-0  00000+0 0  9992
2 33055   0.0644   6.2236 0004001  73.8070 248.4582  1.00272751 43680
TURKSAT 3A              
1 33056U 08030B   20143.91993758  .00000158  00000-0  00000-0 0  9993
2 33056   0.0660  93.5238 0004817 331.2444 189.3964  1.00269688 30139
INTELSAT 25 (IS-25)     
1 33153U 08034A   20144.99892228 -.00000212  00000-0  00000-0 0  9996
2 33153   0.0007  21.8283 0001191 331.8322 216.5153  1.00271936 43427
BADR-6                  
1 33154U 08034B   20145.16021625  .00000156  00000-0  00000-0 0  9998
2 33154   0.0612  40.4842 0006377  30.5711 254.8296  1.00270557 43548
ECHOSTAR 11             
1 33207U 08035A   20144.91142466 -.00000045  00000-0  00000-0 0  9995
2 33207   0.0522 108.8117 0002411 318.9574  32.3206  1.00272051 29035
